{
    "links": {
        "self": "http://www.neowsapp.com/rest/v1/neo/54017114?api_key=iIulBulltgU6a56xZRHN4H3l9WmuAYTsLGpBGhQ2"
    },
    "id": "54017114",
    "neo_reference_id": "54017114",
    "name": "(2020 KK1)",
    "designation": "2020 KK1",
    "nasa_jpl_url": "http://ssd.jpl.nasa.gov/sbdb.cgi?sstr=54017114",
    "absolute_magnitude_h": 20.986,
    "estimated_diameter": {
        "kilometers": {
            "estimated_diameter_min": 0.1687932116,
            "estimated_diameter_max": 0.3774330954
        },
        "meters": {
            "estimated_diameter_min": 168.7932116384,
            "estimated_diameter_max": 377.4330953639
        },
        "miles": {
            "estimated_diameter_min": 0.1048832067,
            "estimated_diameter_max": 0.2345259799
        },
        "feet": {
            "estimated_diameter_min": 553.7835204716,
            "estimated_diameter_max": 1238.2975965937
        }
    },
    "is_potentially_hazardous_asteroid": false,
    "close_approach_data": [
        {
            "close_approach_date": "2003-08-31",
            "close_approach_date_full": "2003-Aug-31 01:06",
            "epoch_date_close_approach": 1062291960000,
            "relative_velocity": {
                "kilometers_per_second": "6.131928361",
                "kilometers_per_hour": "22074.9420994598",
                "miles_per_hour": "13716.5105506338"
            },
            "miss_distance": {
                "astronomical": "1.7670453355",
                "lunar": "687.3806355095",
                "kilometers": "264346218.384235385",
                "miles": "164257123.399942913"
            },
            "orbiting_body": "Juptr"
        },
        {
            "close_approach_date": "2009-05-22",
            "close_approach_date_full": "2009-May-22 22:20",
            "epoch_date_close_approach": 1243030800000,
            "relative_velocity": {
                "kilometers_per_second": "25.9569302656",
                "kilometers_per_hour": "93444.9489561308",
                "miles_per_hour": "58063.0573111025"
            },
            "miss_distance": {
                "astronomical": "0.2522704116",
                "lunar": "98.1331901124",
                "kilometers": "37739116.239383292",
                "miles": "23449999.4402297496"
            },
            "orbiting_body": "Earth"
        },
        {
            "close_approach_date": "2009-10-07",
            "close_approach_date_full": "2009-Oct-07 13:36",
            "epoch_date_close_approach": 1254922560000,
            "relative_velocity": {
                "kilometers_per_second": "17.010361667",
                "kilometers_per_hour": "61237.3020011136",
                "miles_per_hour": "38050.4780128586"
            },
            "miss_distance": {
                "astronomical": "0.0945775984",
                "lunar": "36.7906857776",
                "kilometers": "14148607.270355408",
                "miles": "8791536.8888163104"
            },
            "orbiting_body": "Mars"
        },
        {
            "close_approach_date": "2015-01-13",
            "close_approach_date_full": "2015-Jan-13 14:12",
            "epoch_date_close_approach": 1421158320000,
            "relative_velocity": {
                "kilometers_per_second": "5.2691832197",
                "kilometers_per_hour": "18969.0595908041",
                "miles_per_hour": "11786.6359440749"
            },
            "miss_distance": {
                "astronomical": "1.6612200465",
                "lunar": "646.2145980885",
                "kilometers": "248514980.557700955",
                "miles": "154420048.365764979"
            },
            "orbiting_body": "Juptr"
        },
        {
            "close_approach_date": "2020-07-28",
            "close_approach_date_full": "2020-Jul-28 13:22",
            "epoch_date_close_approach": 1595942520000,
            "relative_velocity": {
                "kilometers_per_second": "16.5457319395",
                "kilometers_per_hour": "59564.6349821993",
                "miles_per_hour": "37011.1477754671"
            },
            "miss_distance": {
                "astronomical": "0.296055365",
                "lunar": "115.165536985",
                "kilometers": "44289252.00607255",
                "miles": "27520065.07419919"
            },
            "orbiting_body": "Earth"
        }
    ],
    "orbital_data": {
        "orbit_id": "5",
        "orbit_determination_date": "2020-06-23 06:12:49",
        "first_observation_date": "2020-05-16",
        "last_observation_date": "2020-06-22",
        "data_arc_in_days": 37,
        "observations_used": 32,
        "orbit_uncertainty": "6",
        "minimum_orbit_intersection": ".0645504",
        "jupiter_tisserand_invariant": "3.128",
        "epoch_osculation": "2459000.5",
        "eccentricity": ".7010622921047666",
        "semi_major_axis": "2.38770053980531",
        "inclination": "10.86362352051632",
        "ascending_node_longitude": "273.9588626931892",
        "orbital_period": "1347.622375562515",
        "perihelion_distance": ".713773726509611",
        "perihelion_argument": "52.75931634831076",
        "aphelion_distance": "4.061627353101009",
        "perihelion_time": "2459072.665900126297",
        "mean_anomaly": "340.721807149705",
        "mean_motion": ".2671371494924394",
        "equinox": "J2000",
        "orbit_class": {
            "orbit_class_type": "APO",
            "orbit_class_description": "Near-Earth asteroid orbits which cross the Earth’s orbit similar to that of 1862 Apollo",
            "orbit_class_range": "a (semi-major axis) > 1.0 AU; q (perihelion) < 1.017 AU"
        }
    },
    "is_sentry_object": false
}